[{"OBJECT_NAME":"FORMOSAT 7-3","OBJECT_ID":"2019-036E","EPOCH":"2026-03-09T19:49:52.754592","MEAN_MOTION":15.08933962,"ECCENTRICITY":0.00010606,"INCLINATION":23.9981,"RA_OF_ASC_NODE":141.9797,"ARG_OF_PERICENTER":150.4425,"MEAN_ANOMALY":209.6139,"EPHEMERIS_TYPE":0,"CLASSIFICATION_TYPE":"U","NORAD_CAT_ID":44343,"ELEMENT_SET_NO":999,"REV_AT_EPOCH":36821,"BSTAR":0.00037650049,"MEAN_MOTION_DOT":6.445e-5,"MEAN_MOTION_DDOT":0},{"OBJECT_NAME":"STARLINK-3940","OBJECT_ID":"2022-051H","EPOCH":"2026-03-09T13:19:58.783872","MEAN_MOTION":15.08839724,"ECCENTRICITY":0.0001231,"INCLINATION":53.2172,"RA_OF_ASC_NODE":129.7624,"ARG_OF_PERICENTER":89.5983,"MEAN_ANOMALY":270.515,"EPHEMERIS_TYPE":0,"CLASSIFICATION_TYPE":"U","NORAD_CAT_ID":52540,"ELEMENT_SET_NO":999,"REV_AT_EPOCH":21142,"BSTAR":1.2571e-5,"MEAN_MOTION_DOT":-8.8e-7,"MEAN_MOTION_DDOT":0}]
