FORMOSAT 7-3            
1 44343U 19036E   26068.82630502  .00006445  00000+0  37650-3 0  9997
2 44343  23.9981 141.9797 0001061 150.4425 209.6139 15.08933962368215
STARLINK-3940           
1 52540U 22051H   26068.55554148 -.00000088  00000+0  12571-4 0  9991
2 52540  53.2172 129.7624 0001231  89.5983 270.5150 15.08839724211425
